{
  "norad_id": 56293,
  "name": "STARLINK-30090",
  "history": [
    {
      "epoch": "2026-03-28T20:00:01.999872Z",
      "apogee_km": 335.28848565750286,
      "perigee_km": 332.91530647340915,
      "latitude_deg": -27.503664954565117,
      "longitude_deg": -63.09963583596162,
      "height_km": 340.27941757565543,
      "semi_major_axis_km": 6712.238896065455,
      "eccentricity": 0.00017678,
      "inclination_deg": 43.0,
      "raan_deg": 96.8803,
      "arg_perigee_deg": 274.8064,
      "mean_anomaly_deg": 42.8703,
      "mean_motion_rev_day": 15.78707435
    },
    {
      "epoch": "2026-03-29T04:00:01.999584Z",
      "apogee_km": 331.98016901470965,
      "perigee_km": 329.77826989148525,
      "latitude_deg": 34.16315423631284,
      "longitude_deg": -105.37665332291978,
      "height_km": 333.01520981913274,
      "semi_major_axis_km": 6709.016219453098,
      "eccentricity": 0.0001641,
      "inclination_deg": 42.9995,
      "raan_deg": 94.8487,
      "arg_perigee_deg": 273.4098,
      "mean_anomaly_deg": 141.7224,
      "mean_motion_rev_day": 15.7984507
    },
    {
      "epoch": "2026-03-30T04:00:01.999584Z",
      "apogee_km": 322.41122528178494,
      "perigee_km": 320.6304562277119,
      "latitude_deg": -3.0820567975444253,
      "longitude_deg": -162.13450976621195,
      "height_km": 322.1629978484137,
      "semi_major_axis_km": 6699.657840754748,
      "eccentricity": 0.0001329,
      "inclination_deg": 42.999,
      "raan_deg": 88.7277,
      "arg_perigee_deg": 237.3716,
      "mean_anomaly_deg": 118.2077,
      "mean_motion_rev_day": 15.83156422
    },
    {
      "epoch": "2026-03-30T06:00:02.000160Z",
      "apogee_km": 321.9599680357842,
      "perigee_km": 319.8036878554449,
      "latitude_deg": 39.64341672425252,
      "longitude_deg": -71.50939088610427,
      "height_km": 323.8251966102914,
      "semi_major_axis_km": 6699.018827945614,
      "eccentricity": 0.00016094,
      "inclination_deg": 42.9984,
      "raan_deg": 88.2168,
      "arg_perigee_deg": 234.2745,
      "mean_anomaly_deg": 236.9084,
      "mean_motion_rev_day": 15.83382951
    },
    {
      "epoch": "2026-03-30T14:00:03.000384Z",
      "apogee_km": 318.63187527115497,
      "perigee_km": 316.2625758370996,
      "latitude_deg": -22.84350518310814,
      "longitude_deg": -105.1296230233903,
      "height_km": 321.8091346773465,
      "semi_major_axis_km": 6695.5842255541265,
      "eccentricity": 0.00017693,
      "inclination_deg": 42.999,
      "raan_deg": 86.163,
      "arg_perigee_deg": 246.2328,
      "mean_anomaly_deg": 328.2011,
      "mean_motion_rev_day": 15.84601438
    },
    {
      "epoch": "2026-03-30T22:00:00.999936Z",
      "apogee_km": 315.3915067447806,
      "perigee_km": 313.19786148735966,
      "latitude_deg": -26.79490664105537,
      "longitude_deg": -106.77986063392783,
      "height_km": 320.8581054714068,
      "semi_major_axis_km": 6692.43168411607,
      "eccentricity": 0.00016389,
      "inclination_deg": 42.9987,
      "raan_deg": 84.1103,
      "arg_perigee_deg": 240.3512,
      "mean_anomaly_deg": 78.5589,
      "mean_motion_rev_day": 15.85721235
    },
    {
      "epoch": "2026-03-31T20:00:01.999008Z",
      "apogee_km": 307.0879211270076,
      "perigee_km": 304.0013969368665,
      "latitude_deg": 11.04884229206955,
      "longitude_deg": 117.2182583042472,
      "height_km": 303.98970434874866,
      "semi_major_axis_km": 6683.681659031937,
      "eccentricity": 0.0002309,
      "inclination_deg": 42.9987,
      "raan_deg": 78.4498,
      "arg_perigee_deg": 232.4233,
      "mean_anomaly_deg": 291.2952,
      "mean_motion_rev_day": 15.88836204
    },
    {
      "epoch": "2026-04-01T20:00:01.999008Z",
      "apogee_km": 297.14622702848374,
      "perigee_km": 293.8641298051389,
      "latitude_deg": 27.656286925179455,
      "longitude_deg": 88.06743168650463,
      "height_km": 295.86768255531035,
      "semi_major_axis_km": 6673.6421784168115,
      "eccentricity": 0.0002459,
      "inclination_deg": 42.999,
      "raan_deg": 72.2394,
      "arg_perigee_deg": 233.2948,
      "mean_anomaly_deg": 264.027,
      "mean_motion_rev_day": 15.92422796
    },
    {
      "epoch": "2026-04-02T22:29:14.953632Z",
      "apogee_km": 285.0269426105333,
      "perigee_km": 282.7205544893841,
      "latitude_deg": 2.326936374629548e-05,
      "longitude_deg": -103.23936615949366,
      "height_km": 283.65634211708397,
      "semi_major_axis_km": 6662.010748549958,
      "eccentricity": 0.0001731,
      "inclination_deg": 42.9978,
      "raan_deg": 65.3514,
      "arg_perigee_deg": 269.3716,
      "mean_anomaly_deg": 90.6963,
      "mean_motion_rev_day": 15.96595013
    },
    {
      "epoch": "2026-04-03T01:29:24.241632Z",
      "apogee_km": 283.9658428136736,
      "perigee_km": 281.402758777127,
      "latitude_deg": -2.3008433087048263e-05,
      "longitude_deg": -149.18502704826878,
      "height_km": 282.82775858329853,
      "semi_major_axis_km": 6660.8213007954,
      "eccentricity": 0.0001924,
      "inclination_deg": 42.9979,
      "raan_deg": 64.5678,
      "arg_perigee_deg": 253.0552,
      "mean_anomaly_deg": 107.0114,
      "mean_motion_rev_day": 15.97022697
    }
  ]
}